{"type":"FeatureCollection","features":[{"type":"Feature","properties":{"name":"województwo małopolskie","source":"© OpenStreetMap contributors (ODbL), via Nominatim, polygon_threshold=0.005"},"geometry":{"type":"Polygon","coordinates":[[[19.0831232,49.9505996],[19.1409385,49.9380274],[19.1885257,49.9521761],[19.182485,49.932869],[19.1944956,49.9132576],[19.1961755,49.8874192],[19.1572188,49.8663388],[19.1664297,49.8561793],[19.193195,49.8584528],[19.1930923,49.8682286],[19.202613,49.8715773],[19.2212094,49.8686743],[19.2209496,49.863135],[19.2708556,49.8606639],[19.2946297,49.8499473],[19.2865705,49.816413],[19.3167844,49.7778868],[19.3499196,49.771424],[19.3660362,49.7777562],[19.3999991,49.7616719],[19.4149519,49.7752652],[19.4319999,49.7616472],[19.4449353,49.7340338],[19.4282477,49.7274733],[19.4284466,49.718095],[19.3982654,49.7118741],[19.3910923,49.697189],[19.3702167,49.6933022],[19.4118648,49.6727728],[19.4410575,49.6805284],[19.4594353,49.6764334],[19.4777776,49.6608127],[19.4684684,49.6438614],[19.4807649,49.6243829],[19.4673762,49.6137628],[19.4746169,49.6046527],[19.4685566,49.5962823],[19.5293311,49.5730217],[19.530449,49.5357702],[19.5814677,49.4554092],[19.5974358,49.4586318],[19.611446,49.446873],[19.6411189,49.4575599],[19.6377964,49.4405483],[19.648596,49.435365],[19.631728,49.408797],[19.685373,49.403584],[19.717643,49.386422],[19.7462787,49.4079369],[19.7905922,49.4106881],[19.7911317,49.3835114],[19.8038175,49.3648155],[19.79472,49.344528],[19.804964,49.322768],[19.792474,49.29974],[19.8098793,49.2953969],[19.822802,49.276794],[19.792472,49.267969],[19.7846935,49.2462266],[19.7667676,49.2365983],[19.7597772,49.2112869],[19.783829,49.199363],[19.807521,49.205652],[19.841,49.192616],[19.869438,49.195797],[19.902332,49.213313],[19.903268,49.230919],[19.9322171,49.2364897],[19.9815609,49.2318014],[20.008629,49.22005],[20.00647,49.213158],[20.020529,49.201505],[20.0881093,49.1795743],[20.084375,49.196185],[20.1016245,49.2226589],[20.100767,49.250088],[20.125144,49.270926],[20.134205,49.305921],[20.14605,49.317978],[20.1577195,49.3028155],[20.1758037,49.3140828],[20.1705837,49.3277346],[20.1841559,49.3278079],[20.1932141,49.340978],[20.220823,49.35179],[20.2686569,49.345694],[20.2928163,49.3515563],[20.3141766,49.3435077],[20.3236537,49.3518116],[20.321084,49.377404],[20.331276,49.391429],[20.31751,49.388727],[20.322156,49.401755],[20.362271,49.398262],[20.375681,49.40786],[20.382309,49.391229],[20.390427,49.39042],[20.412285,49.395203],[20.418288,49.405858],[20.431404,49.395877],[20.434095,49.417977],[20.446352,49.411918],[20.47196,49.415436],[20.5048874,49.4032896],[20.5099362,49.3934459],[20.575525,49.376106],[20.613598,49.401824],[20.614934,49.417845],[20.646988,49.40067],[20.69269,49.419967],[20.739721,49.416391],[20.746114,49.411798],[20.742269,49.403833],[20.758162,49.400157],[20.747534,49.391002],[20.761446,49.384127],[20.758994,49.373393],[20.785406,49.3744],[20.782476,49.361031],[20.798892,49.363204],[20.809626,49.358992],[20.80688,49.353151],[20.797871,49.358704],[20.798128,49.342767],[20.811836,49.347687],[20.825903,49.334404],[20.83733,49.33402],[20.865549,49.347484],[20.882386,49.333097],[20.872738,49.319789],[20.903575,49.323535],[20.924084,49.295969],[20.969607,49.309888],[20.986545,49.306621],[20.994138,49.31268],[20.988197,49.327052],[21.008091,49.334852],[21.011312,49.347564],[21.0438804,49.3653591],[21.0753304,49.3593162],[21.0941092,49.3650563],[21.1041047,49.3764011],[21.054315,49.404219],[21.048728,49.419392],[21.0963873,49.429488],[21.113728,49.4239391],[21.1240235,49.4365799],[21.1522517,49.4269582],[21.1800295,49.4021685],[21.2081942,49.402482],[21.2272548,49.4169518],[21.2234581,49.4255179],[21.2327486,49.4365452],[21.2659192,49.4469846],[21.2673438,49.4571872],[21.2775246,49.4609398],[21.3071819,49.4479956],[21.344684,49.4504234],[21.3727513,49.4326443],[21.3984552,49.4337313],[21.3921359,49.4557948],[21.4113723,49.4678098],[21.3888416,49.4854531],[21.4217327,49.4922037],[21.4075598,49.5096257],[21.3927887,49.5116651],[21.3825818,49.5252668],[21.3917302,49.5275103],[21.3804695,49.539067],[21.3586406,49.5447462],[21.3802884,49.5697632],[21.3268166,49.59219],[21.3628033,49.6344157],[21.3576986,49.6497033],[21.3417217,49.659324],[21.3486775,49.6926739],[21.3203964,49.6984492],[21.3314076,49.7186722],[21.3157595,49.7282526],[21.3190203,49.7394867],[21.3118414,49.7482044],[21.28132,49.7551939],[21.2578189,49.7521313],[21.2417725,49.7761044],[21.2514687,49.7921578],[21.2705885,49.7941295],[21.2803983,49.8057797],[21.3083977,49.7961386],[21.3489532,49.8149635],[21.2971493,49.8428642],[21.2521295,49.8408931],[21.2249575,49.8525994],[21.2263978,49.8858592],[21.26112,49.8848341],[21.2796546,49.8920526],[21.2881766,49.9094323],[21.2847187,49.9240646],[21.2485165,49.9309595],[21.1797066,49.9283287],[21.1504352,49.9764832],[21.1544412,50.0034056],[21.1787856,50.0118035],[21.1929048,50.0292592],[21.1450327,50.0530123],[21.1663512,50.0597023],[21.1653334,50.0671214],[21.1797214,50.0761166],[21.1600886,50.0895013],[21.1990053,50.0949579],[21.176904,50.1118631],[21.1950191,50.1198444],[21.1461552,50.1300381],[21.1757591,50.1426466],[21.1523921,50.147641],[21.1710581,50.1766197],[21.1650428,50.1806736],[21.1709836,50.2082563],[21.1421116,50.2376794],[21.1826796,50.2400044],[21.1457267,50.2571205],[21.1775412,50.2797587],[21.1838233,50.29799],[21.2226395,50.3108625],[21.2132799,50.330402],[21.2188813,50.341335],[21.2088306,50.3548959],[21.1901236,50.3520878],[21.1765949,50.3298151],[21.1540401,50.3513865],[21.132043,50.3542857],[21.1130018,50.3384482],[21.0830597,50.3363623],[21.0555329,50.3155458],[20.9551955,50.3160401],[20.9311445,50.2981055],[20.895269,50.306632],[20.8795391,50.2956328],[20.8530099,50.2951735],[20.8481638,50.2788449],[20.8358386,50.2733157],[20.8093783,50.288257],[20.7899384,50.2895836],[20.7695181,50.2691885],[20.7290454,50.251473],[20.730027,50.231315],[20.707917,50.2268461],[20.7016711,50.2170396],[20.6819219,50.2165358],[20.6752641,50.2014054],[20.6337829,50.2116576],[20.6242556,50.2019055],[20.6308128,50.2025959],[20.630903,50.2019612],[20.5934727,50.201554],[20.5717582,50.1862808],[20.5572179,50.2016385],[20.5129191,50.1854539],[20.4692832,50.2007908],[20.4734593,50.1907948],[20.4550167,50.199211],[20.4515237,50.1927194],[20.4307833,50.197291],[20.4155177,50.1912371],[20.4102497,50.2117933],[20.3847088,50.2075929],[20.3745653,50.2160275],[20.3742866,50.2272082],[20.3975454,50.2414789],[20.376209,50.2431507],[20.3529782,50.2635756],[20.3307835,50.2675272],[20.3622126,50.2822783],[20.3564813,50.2889573],[20.3409341,50.2871242],[20.3402954,50.2986935],[20.3490976,50.2989106],[20.3444098,50.3049588],[20.3327085,50.3045336],[20.3284408,50.3187384],[20.2926232,50.3221986],[20.3053277,50.3358855],[20.2924297,50.3458014],[20.2954919,50.3506165],[20.3131055,50.3486345],[20.3390725,50.3596285],[20.3175219,50.3706781],[20.3209018,50.3844581],[20.3058305,50.3889627],[20.2898863,50.4191425],[20.2638006,50.4300274],[20.2606084,50.4414307],[20.2728676,50.4699456],[20.2622365,50.4673802],[20.2477808,50.479543],[20.2258306,50.4779061],[20.2202035,50.490286],[20.2053014,50.4957105],[20.1665313,50.4844423],[20.1305218,50.489863],[20.1138076,50.4847762],[20.0869076,50.4895647],[20.0969947,50.4960712],[20.0757258,50.5097743],[20.054359,50.511588],[20.0283835,50.5008376],[20.0270802,50.508576],[20.007833,50.5154031],[19.9708712,50.5204879],[19.9499664,50.5047826],[19.9730067,50.4755367],[19.9005597,50.4735248],[19.8920803,50.4661706],[19.8997814,50.453399],[19.8529157,50.4473555],[19.8535121,50.4351436],[19.8107478,50.4353121],[19.80086,50.443879],[19.7098042,50.441435],[19.7007814,50.4497214],[19.6943543,50.4351573],[19.6650192,50.4265553],[19.6717448,50.4158297],[19.6545403,50.4141454],[19.658161,50.4081758],[19.6271365,50.4145608],[19.6136713,50.4045197],[19.5660312,50.407307],[19.5743465,50.411517],[19.5357377,50.4202389],[19.4875566,50.3969791],[19.4916872,50.3659786],[19.4603471,50.3729063],[19.4564266,50.3662145],[19.484154,50.3540977],[19.483944,50.3235974],[19.4512556,50.3187925],[19.4153566,50.3317859],[19.3984436,50.3091153],[19.414298,50.2979996],[19.400299,50.2990049],[19.3825665,50.2735027],[19.3618441,50.2708115],[19.3714799,50.2682923],[19.3632092,50.2606378],[19.3522376,50.2668667],[19.3234428,50.2595543],[19.3970166,50.2316107],[19.4419756,50.2265744],[19.4164527,50.2105723],[19.4165003,50.2012734],[19.405462,50.2068988],[19.3734396,50.192418],[19.3352271,50.188509],[19.3491156,50.1776014],[19.3676867,50.179104],[19.3616417,50.1713939],[19.3485944,50.1731368],[19.3499543,50.1506172],[19.3150137,50.1422329],[19.2707037,50.1438232],[19.2778168,50.119726],[19.2591775,50.1169337],[19.2543985,50.1305921],[19.2612849,50.1321865],[19.2504424,50.1317037],[19.2119508,50.0764633],[19.2291478,50.0714158],[19.2335705,50.0657427],[19.2234924,50.0676238],[19.2187069,50.0589801],[19.1953237,50.0651626],[19.1499897,50.0520336],[19.1458786,50.04531],[19.1547299,50.0472628],[19.1447526,50.0398754],[19.145898,50.0312305],[19.1362632,50.0352995],[19.141974,50.0239615],[19.1190232,50.0092446],[19.1219659,50.0023827],[19.1175663,50.0037964],[19.1130674,50.0027226],[19.11748,49.9997054],[19.1112328,49.9959881],[19.1232855,49.9883045],[19.1101823,49.9723432],[19.1227233,49.9721395],[19.1176137,49.9677758],[19.124342,49.9634682],[19.0831232,49.9505996]]]}}]}